ONEWEB-0560             
1 55145U 23004F   24212.69688942 -.00000201  00000+0 -54223-3 0  9995
2 55145  87.9140 112.1539 0001569  68.6104 291.5195 13.18686510 79231
ONEWEB-0565             
1 55146U 23004G   24212.46294169  .00000007  00000+0 -15846-4 0  9997
2 55146  87.9136 112.2765 0001436  94.4495 265.6802 13.18685801 79196
ONEWEB-0567             
1 55147U 23004H   24212.68424964  .00000051  00000+0  97062-4 0  9998
2 55147  87.9135 112.1862 0001387  80.6062 279.5227 13.18686874 79225
ONEWEB-0570             
1 55149U 23004K   24212.44397662  .00000014  00000+0  17145-5 0  9992
2 55149  87.9139 112.2317 0002177  98.7082 261.4297 13.18686102 79183
ONEWEB-0572             
1 55151U 23004M   24212.75257362  .00000050  00000+0  96511-4 0  9994
2 55151  87.9193 142.5578 0002004  84.3465 275.7895 13.17652073 77084
